{"type": "FeatureCollection", "features": [ {"type": "Feature", "properties": {"norad_id": 58662, "name": "TIANMU-1 21", "group": "weather", "lat": 50.56300769850886, "lon": -56.81426905705554, "alt_km": 464.5266980171291, "timestamp": "2025-12-26T14:28:47.333135+00:00", "meta": {"OBJECT_NAME": "TIANMU-1 21", "OBJECT_ID": "2023-208C", "EPOCH": "2025-12-26T06:04:49.390752", "MEAN_MOTION": 15.31841416, "ECCENTRICITY": 0.00065189, "INCLINATION": 97.4373, "RA_OF_ASC_NODE": 113.6958, "ARG_OF_PERICENTER": 204.7114, "MEAN_ANOMALY": 155.3816, "EPHEMERIS_TYPE": 0, "CLASSIFICATION_TYPE": "U", "NORAD_CAT_ID": 58662, "ELEMENT_SET_NO": 999, "REV_AT_EPOCH": 11106, "BSTAR": 0.00038160714, "MEAN_MOTION_DOT": 0.00011666, "MEAN_MOTION_DDOT": 0}, "tle": {"line1": "1 58662U 23208C   25360.25334943  .00011666  00000+0  38161-3 0  9992", "line2": "2 58662  97.4373 113.6958 0006518 204.7114 155.3816 15.31841416111066"}}, "geometry": {"type": "Point", "coordinates": [-56.81426905705554, 50.56300769850886]}}, {"type": "Feature", "properties": {"norad_id": 58663, "name": "TIANMU-1 22", "group": "weather", "lat": -32.688778819554976, "lon": -73.14149996249029, "alt_km": 486.3920857603707, "timestamp": "2025-12-26T14:28:47.333145+00:00", "meta": {"OBJECT_NAME": "TIANMU-1 22", "OBJECT_ID": "2023-208D", "EPOCH": "2025-12-26T07:15:47.755584", "MEAN_MOTION": 15.27833341, "ECCENTRICITY": 0.00030542, "INCLINATION": 97.4379, "RA_OF_ASC_NODE": 111.3675, "ARG_OF_PERICENTER": 218.6452, "MEAN_ANOMALY": 141.4569, "EPHEMERIS_TYPE": 0, "CLASSIFICATION_TYPE": "U", "NORAD_CAT_ID": 58663, "ELEMENT_SET_NO": 999, "REV_AT_EPOCH": 11090, "BSTAR": 0.00033057499, "MEAN_MOTION_DOT": 8.913e-05, "MEAN_MOTION_DDOT": 0}, "tle": {"line1": "1 58663U 23208D   25360.30263606  .00008913  00000+0  33057-3 0  9996", "line2": "2 58663  97.4379 111.3675 0003054 218.6452 141.4569 15.27833341110901"}}, "geometry": {"type": "Point", "coordinates": [-73.14149996249029, -32.688778819554976]}}, {"type": "Feature", "properties": {"norad_id": 58700, "name": "TIANMU-1 15", "group": "weather", "lat": -2.1050495333763375, "lon": 1.744788846978975, "alt_km": 492.6405785624229, "timestamp": "2025-12-26T14:28:47.333155+00:00", "meta": {"OBJECT_NAME": "TIANMU-1 15", "OBJECT_ID": "2024-004A", "EPOCH": "2025-12-26T07:22:57.795168", "MEAN_MOTION": 15.24587491, "ECCENTRICITY": 0.00061113, "INCLINATION": 97.4631, "RA_OF_ASC_NODE": 181.7263, "ARG_OF_PERICENTER": 232.4078, "MEAN_ANOMALY": 127.6605, "EPHEMERIS_TYPE": 0, "CLASSIFICATION_TYPE": "U", "NORAD_CAT_ID": 58700, "ELEMENT_SET_NO": 999, "REV_AT_EPOCH": 10941, "BSTAR": 0.00030293399, "MEAN_MOTION_DOT": 7.399e-05, "MEAN_MOTION_DDOT": 0}, "tle": {"line1": "1 58700U 24004A   25360.30761337  .00007399  00000+0  30293-3 0  9993", "line2": "2 58700  97.4631 181.7263 0006111 232.4078 127.6605 15.24587491109413"}}, "geometry": {"type": "Point", "coordinates": [1.744788846978975, -2.1050495333763375]}}, {"type": "Feature", "properties": {"norad_id": 58701, "name": "TIANMU-1 16", "group": "weather", "lat": -80.99838347071459, "lon": -54.37579745084734, "alt_km": 496.6980357304019, "timestamp": "2025-12-26T14:28:47.333168+00:00", "meta": {"OBJECT_NAME": "TIANMU-1 16", "OBJECT_ID": "2024-004B", "EPOCH": "2025-12-26T07:01:13.274400", "MEAN_MOTION": 15.24614504, "ECCENTRICITY": 0.00044501, "INCLINATION": 97.457, "RA_OF_ASC_NODE": 181.0892, "ARG_OF_PERICENTER": 234.1604, "MEAN_ANOMALY": 125.9221, "EPHEMERIS_TYPE": 0, "CLASSIFICATION_TYPE": "U", "NORAD_CAT_ID": 58701, "ELEMENT_SET_NO": 999, "REV_AT_EPOCH": 10941, "BSTAR": 0.00028916847, "MEAN_MOTION_DOT": 7.063e-05, "MEAN_MOTION_DDOT": 0}, "tle": {"line1": "1 58701U 24004B   25360.29251475  .00007063  00000+0  28917-3 0  9997", "line2": "2 58701  97.4570 181.0892 0004450 234.1604 125.9221 15.24614504109416"}}, "geometry": {"type": "Point", "coordinates": [-54.37579745084734, -80.99838347071459]}}, {"type": "Feature", "properties": {"norad_id": 58702, "name": "TIANMU-1 17", "group": "weather", "lat": -8.429994375132338, "lon": -177.07136312060766, "alt_km": 497.0821909262995, "timestamp": "2025-12-26T14:28:47.333178+00:00", "meta": {"OBJECT_NAME": "TIANMU-1 17", "OBJECT_ID": "2024-004C", "EPOCH": "2025-12-26T06:38:28.932000", "MEAN_MOTION": 15.24656988, "ECCENTRICITY": 0.00036156, "INCLINATION": 97.4604, "RA_OF_ASC_NODE": 181.4906, "ARG_OF_PERICENTER": 234.9723, "MEAN_ANOMALY": 125.1175, "EPHEMERIS_TYPE": 0, "CLASSIFICATION_TYPE": "U", "NORAD_CAT_ID": 58702, "ELEMENT_SET_NO": 999, "REV_AT_EPOCH": 10940, "BSTAR": 0.00029546712, "MEAN_MOTION_DOT": 7.228e-05, "MEAN_MOTION_DDOT": 0}, "tle": {"line1": "1 58702U 24004C   25360.27672375  .00007228  00000+0  29547-3 0  9995", "line2": "2 58702  97.4604 181.4906 0003615 234.9723 125.1175 15.24656988109408"}}, "geometry": {"type": "Point", "coordinates": [-177.07136312060766, -8.429994375132338]}}, {"type": "Feature", "properties": {"norad_id": 58703, "name": "TIANMU-1 18", "group": "weather", "lat": 79.30142259903812, "lon": 138.08481732969173, "alt_km": 486.2593453207119, "timestamp": "2025-12-26T14:28:47.333188+00:00", "meta": {"OBJECT_NAME": "TIANMU-1 18", "OBJECT_ID": "2024-004D", "EPOCH": "2025-12-26T06:14:39.039648", "MEAN_MOTION": 15.24639297, "ECCENTRICITY": 0.00030122, "INCLINATION": 97.4621, "RA_OF_ASC_NODE": 181.6723, "ARG_OF_PERICENTER": 231.3729, "MEAN_ANOMALY": 128.7239, "EPHEMERIS_TYPE": 0, "CLASSIFICATION_TYPE": "U", "NORAD_CAT_ID": 58703, "ELEMENT_SET_NO": 999, "REV_AT_EPOCH": 10940, "BSTAR": 0.0003050266, "MEAN_MOTION_DOT": 7.46e-05, "MEAN_MOTION_DDOT": 0}, "tle": {"line1": "1 58703U 24004D   25360.26017407  .00007460  00000+0  30503-3 0  9996", "line2": "2 58703  97.4621 181.6723 0003012 231.3729 128.7239 15.24639297109409"}}, "geometry": {"type": "Point", "coordinates": [138.08481732969173, 79.30142259903812]}}, {"type": "Feature", "properties": {"norad_id": 58990, "name": "INSAT-3DS", "group": "weather", "lat": -0.04717429102715876, "lon": 34.65666318874049, "alt_km": 35789.011370167624, "timestamp": "2025-12-26T14:28:47.333200+00:00", "meta": {"OBJECT_NAME": "INSAT-3DS", "OBJECT_ID": "2024-033A", "EPOCH": "2025-12-26T03:37:38.694720", "MEAN_MOTION": 1.00270995, "ECCENTRICITY": 0.00013204, "INCLINATION": 0.0623, "RA_OF_ASC_NODE": 99.1784, "ARG_OF_PERICENTER": 176.7912, "MEAN_ANOMALY": 315.4504, "EPHEMERIS_TYPE": 0, "CLASSIFICATION_TYPE": "U", "NORAD_CAT_ID": 58990, "ELEMENT_SET_NO": 999, "REV_AT_EPOCH": 4533, "BSTAR": 0, "MEAN_MOTION_DOT": -1.34e-06, "MEAN_MOTION_DDOT": 0}, "tle": {"line1": "1 58990U 24033A   25360.15114230 -.00000134  00000+0  00000+0 0  9993", "line2": "2 58990   0.0623  99.1784 0001320 176.7912 315.4504  1.00270995 45331"}}, "geometry": {"type": "Point", "coordinates": [34.65666318874049, -0.04717429102715876]}}, {"type": "Feature", "properties": {"norad_id": 59051, "name": "METEOR-M2 4", "group": "weather", "lat": -27.199739229179556, "lon": 132.79401879482418, "alt_km": 824.4339409253034, "timestamp": "2025-12-26T14:28:47.333212+00:00", "meta": {"OBJECT_NAME": "METEOR-M2 4", "OBJECT_ID": "2024-039A", "EPOCH": "2025-12-26T06:45:14.731200", "MEAN_MOTION": 14.22403344, "ECCENTRICITY": 0.00063448, "INCLINATION": 98.6786, "RA_OF_ASC_NODE": 316.9792, "ARG_OF_PERICENTER": 317.5384, "MEAN_ANOMALY": 42.5303, "EPHEMERIS_TYPE": 0, "CLASSIFICATION_TYPE": "U", "NORAD_CAT_ID": 59051, "ELEMENT_SET_NO": 999, "REV_AT_EPOCH": 9468, "BSTAR": 3.9329197e-05, "MEAN_MOTION_DOT": 4.4e-07, "MEAN_MOTION_DDOT": 0}, "tle": {"line1": "1 59051U 24039A   25360.28142050  .00000044  00000+0  39329-4 0  9993", "line2": "2 59051  98.6786 316.9792 0006344 317.5384  42.5303 14.22403344 94682"}}, "geometry": {"type": "Point", "coordinates": [132.79401879482418, -27.199739229179556]}}, {"type": "Feature", "properties": {"norad_id": 60133, "name": "GOES 19", "group": "weather", "lat": 0.018657074917959284, "lon": -122.6638066667497, "alt_km": 35785.642383981045, "timestamp": "2025-12-26T14:28:47.333224+00:00", "meta": {"OBJECT_NAME": "GOES 19", "OBJECT_ID": "2024-119A", "EPOCH": "2025-12-26T06:19:59.348640", "MEAN_MOTION": 1.00270489, "ECCENTRICITY": 0.00011065, "INCLINATION": 0.0402, "RA_OF_ASC_NODE": 173.7698, "ARG_OF_PERICENTER": 143.4925, "MEAN_ANOMALY": 157.5606, "EPHEMERIS_TYPE": 0, "CLASSIFICATION_TYPE": "U", "NORAD_CAT_ID": 60133, "ELEMENT_SET_NO": 999, "REV_AT_EPOCH": 523, "BSTAR": 0, "MEAN_MOTION_DOT": -2.26e-06, "MEAN_MOTION_DDOT": 0}, "tle": {"line1": "1 60133U 24119A   25360.26388135 -.00000226  00000+0  00000+0 0  9991", "line2": "2 60133   0.0402 173.7698 0001106 143.4925 157.5606  1.00270489  5239"}}, "geometry": {"type": "Point", "coordinates": [-122.6638066667497, 0.018657074917959284]}}, {"type": "Feature", "properties": {"norad_id": 65815, "name": "FENGYUN 3H", "group": "weather", "lat": -37.60682228716482, "lon": -53.364210116525896, "alt_km": 832.5329556360002, "timestamp": "2025-12-26T14:28:47.333234+00:00", "meta": {"OBJECT_NAME": "FENGYUN 3H", "OBJECT_ID": "2025-219A", "EPOCH": "2025-12-26T06:12:10.708128", "MEAN_MOTION": 14.19908278, "ECCENTRICITY": 8.69e-05, "INCLINATION": 98.6602, "RA_OF_ASC_NODE": 299.5564, "ARG_OF_PERICENTER": 109.807, "MEAN_ANOMALY": 250.3201, "EPHEMERIS_TYPE": 0, "CLASSIFICATION_TYPE": "U", "NORAD_CAT_ID": 65815, "ELEMENT_SET_NO": 999, "REV_AT_EPOCH": 1284, "BSTAR": 6.9433267e-05, "MEAN_MOTION_DOT": 1.04e-06, "MEAN_MOTION_DDOT": 0}, "tle": {"line1": "1 65815U 25219A   25360.25845727  .00000104  00000+0  69433-4 0  9993", "line2": "2 65815  98.6602 299.5564 0000869 109.8070 250.3201 14.19908278 12843"}}, "geometry": {"type": "Point", "coordinates": [-53.364210116525896, -37.60682228716482]}}]}